0 COSMOS 2251 DEB
1 35992U 93036AWJ 13287.52767953  .00003093  00000-0  59401-3 0  1218
2 35992 073.9741 357.4794 0101398 196.7303 163.6782 14.60883030221024
0 COSMOS 2251 DEB
1 35992U 93036AWJ 13293.48527613  .00003744  00000-0  71993-3 0  1221
2 35992 073.9533 345.9918 0098179 186.1150 174.0543 14.60931317221896
0 COSMOS 2251 DEB
1 35992U 93036AWJ 13295.81348321  .00003703  00000-0  71048-3 0  1234
2 35992 073.9584 341.5303 0099525 180.9905 179.1077 14.60948366222237
